#aV2012  1 24  0  0   .00000000      96 DD+AD WGS84 FIT  NGA
## 1672 172800.00000000   900.00000000 55950  .0000000000000
+   31     1  2  3  4  5  6  7  8  9 10 11 12 13 14 15 16 17
+         18 19 20 21 22 23 25 26 27 28 29 30 31 32  0  0  0
+          0  0  0  0  0  0  0  0  0  0  0  0  0  0  0  0  0
+          0  0  0  0  0  0  0  0  0  0  0  0  0  0  0  0  0
+          0  0  0  0  0  0  0  0  0  0  0  0  0  0  0  0  0
++         0  0  0  0  0  0  0  0  0  0  0  0  0  0  0  0  0
++         0  0  0  0  0  0  0  0  0  0  0  0  0  0  0  0  0
++         0  0  0  0  0  0  0  0  0  0  0  0  0  0  0  0  0
++         0  0  0  0  0  0  0  0  0  0  0  0  0  0  0  0  0
++         0  0  0  0  0  0  0  0  0  0  0  0  0  0  0  0  0
%c cc cc ccc ccc cccc cccc cccc cccc ccccc ccccc ccccc ccccc
%c cc cc ccc ccc cccc cccc cccc cccc ccccc ccccc ccccc ccccc
%f  0.0000000  0.000000000  0.00000000000  0.000000000000000
%f  0.0000000  0.000000000  0.00000000000  0.000000000000000
%i    0    0    0    0      0      0      0      0         0
%i    0    0    0    0      0      0      0      0         0
/*      NGA, ST. LOUIS,MO.                                  
/*   EPHEMERIS COMPUTED FROM  3 DAYS OF DATA                
/* CCCCCCCCCCCCCCCCCCCCCCCCCCCCCCCCCCCCCCCCCCCCCCCCCCCCCCCCC
/* CCCCCCCCCCCCCCCCCCCCCCCCCCCCCCCCCCCCCCCCCCCCCCCCCCCCCCCCC
*  2012  1 24 11 15   .00000000                                                 
P  1  16456.498407   1663.087356  20767.516035    190.931503                    
V  1   9415.062865  24686.735792  -9416.423425       .119203                    
P  2 -13774.912282 -22420.754236  -5142.031633    376.051608                    
V  2    156.735563  -7225.307682  30032.139760       .016107                    
P  3  18768.029386  11558.810824 -15473.475324       .400153                    
V  3 -18823.127594   2265.137297 -21502.643228       .049666                    
P  4  -6003.416847 -25063.254944   5425.189307     72.898402                    
V  4   6236.091529   5306.872623  30407.398140       .113717                    
P  5 -10730.952949 -11243.403711 -21553.701739   -274.405936                    
V  5  16949.774237 -21472.692254   2888.376757      -.045845                    
P  6  14964.585123  13752.453594 -17105.020660     26.529434                    
V  6 -22032.925626    295.678558 -18621.578340       .024811                    
P  7   9928.424640 -13127.639311 -20767.334737     52.128018                    
V  7  10556.028566  24255.469702 -10509.383348       .026357                    
P  8   2822.408512 -21985.018311 -14126.244465       .463224                    
V  8   6915.731386  16925.797275 -25403.115629       .000863                    
P  9 -16583.650565  -6356.214044  19192.376123    133.889875                    
V  9  -8979.214793 -23903.562662 -15272.838343       .025287                    
P 10   5887.312542 -22299.154530 -13059.158955    -26.690109                    
V 10  12473.345818 -10981.337507  25234.254329      -.013797                    
P 11  20697.318563   6860.405310  14999.340191   -225.866924                    
V 11   9458.984301  17745.125043 -20330.236537      -.035603                    
P 12 -19323.299783   5351.300519  17332.158189     48.423238                    
V 12  12665.408874 -18078.545734  19885.979301       .022014                    
P 13  19902.252587  -6646.189954 -16474.191014    228.945353                    
V 13  19788.486277   5732.410640  21699.118280      -.021547                    
P 14    -60.062375  15062.295057  22063.346530    191.261572                    
V 14 -27020.509449  -5212.380074   3377.860546       .014647                    
P 15 -26395.225858  -3718.922660  -1006.783913    -94.087577                    
V 15   1609.201397  -2902.604085 -31283.953309       .006289                    
P 16   9394.265167  11688.129688 -21880.572134   -220.281620                    
V 16 -18147.876038  21061.664388   3750.709631      -.017359                    
P 17   3131.660780 -14927.438461  21900.156770    152.922525                    
V 17  27010.325147   4745.485899   -870.382094      -.022667                    
P 18 -16996.247752  20093.630655  -1167.527702    178.267855                    
V 18  -2039.049042  -4043.969373 -31252.248336       .018279                    
P 19  25331.301606   8022.849312  -3250.041019   -228.797328                    
V 19  -4487.820276   1540.961985 -31145.469458      -.038413                    
P 20  19858.304654  -8252.924833  15380.991877     60.624688                    
V 20  -9308.797948  17833.899646  21435.136972       .006769                    
P 21  -7575.364096  17189.147140 -18091.317165   -199.737018                    
V 21 -11236.580790 -21581.459991 -16007.164265      -.025442                    
P 22  -6893.854518  22813.058882  11781.150859    142.975365                    
V 22 -11768.238129   9563.865328 -25897.001467       .001173                    
P 23  25739.662885  -1231.422313  -7143.292506    239.147303                    
V 23   8578.175824   3636.031491  29811.871323      -.033474                    
P 25 -19411.307290  15952.912741   8526.204720     31.251979                    
V 25   4583.598452 -10150.144509  29386.009823       .002223                    
P 26 -19823.290132 -13102.771692 -12866.248002   -311.020474                    
V 26  15089.366163   2059.927726 -26239.290050      -.144370                    
P 27 -17658.070125 -13131.944922  15822.105618    349.540836                    
V 27  -6853.009208 -17457.942957 -22648.234530       .038753                    
P 28  10029.395948 -22467.572166  10233.454056    105.819429                    
V 28   9521.512156  -7985.272767 -28625.564019       .037382                    
P 29 -20968.936979   6695.751821 -14769.720848    278.131024                    
V 29 -18226.581283  -5337.517857  23389.891592       .035254                    
P 30   2746.803663  19603.839479 -18057.342153    -20.257687                    
V 30 -13072.503879  18055.975165  17975.451533      -.141437                    
P 31   6782.774612  25208.173542   4351.970640    199.523750                    
V 31  -4098.363085  -4077.719337  31708.701145       .047255                    
P 32  17677.443050   1655.889435  19838.461563   -397.342606                    
V 32 -15793.904229  19260.917458  13071.436282      -.055967                    
EOF
